start=new Date('2022-04-28T00:00:00.000Z').valueOf();
sats=[{"EPOCH":"2022-04-27T13:34:10.023456","TIME_SYSTEM":"UTC","OBJECT_ID":"2020-062AY","ARG_OF_PERICENTER":"49.7257","MEAN_MOTION":"15.06394848","CLASSIFICATION_TYPE":"U","LAUNCH_DATE":"2020-09-03","ELEMENT_SET_NO":"999","MEAN_ANOMALY":"310.3882","MEAN_ELEMENT_THEORY":"SGP4","OBJECT_TYPE":"PAYLOAD","REF_FRAME":"TEME","OBJECT_NAME":"STARLINK-1688","NORAD_CAT_ID":"46371","APOAPSIS":"548.420","DECAY_DATE":null,"CENTER_NAME":"EARTH","PERIOD":"95.592","REV_AT_EPOCH":"9175","MEAN_MOTION_DDOT":"0.0000000000000","SITE":"AFETR","INCLINATION":"53.0537","RA_OF_ASC_NODE":"215.8790","COUNTRY_CODE":"US","TLE_LINE2":"2 46371  53.0537 215.8790 0001719  49.7257 310.3882 15.06394848 91755","PERIAPSIS":"546.039","FILE":"3418497","MEAN_MOTION_DOT":"-0.00000080","SEMIMAJOR_AXIS":"6925.364","TLE_LINE1":"1 46371U 20062AY  22117.56539379 -.00000080  00000-0  13527-4 0  9992","EPHEMERIS_TYPE":"0","RCS_SIZE":"LARGE","ECCENTRICITY":"0.00017190","BSTAR":"0.00001352700000","GP_ID":"202156143"},{"TLE_LINE2":"2 46372  53.0546 236.7323 0001699  50.8530 309.2610 15.06400246 91446","COUNTRY_CODE":"US","RA_OF_ASC_NODE":"236.7323","INCLINATION":"53.0546","GP_ID":"202156889","ECCENTRICITY":"0.00016990","RCS_SIZE":"LARGE","BSTAR":"0.00036752000000","TLE_LINE1":"1 46372U 20062AZ  22117.37557033  .00005197  00000-0  36752-3 0  9996","EPHEMERIS_TYPE":"0","SEMIMAJOR_AXIS":"6925.348","FILE":"3418497","MEAN_MOTION_DOT":"0.00005197","PERIAPSIS":"546.036","REF_FRAME":"TEME","OBJECT_TYPE":"PAYLOAD","ELEMENT_SET_NO":"999","LAUNCH_DATE":"2020-09-03","MEAN_ANOMALY":"309.2610","MEAN_ELEMENT_THEORY":"SGP4","CLASSIFICATION_TYPE":"U","MEAN_MOTION":"15.06400246","ARG_OF_PERICENTER":"50.8530","OBJECT_ID":"2020-062AZ","TIME_SYSTEM":"UTC","EPOCH":"2022-04-27T09:00:49.276512","SITE":"AFETR","MEAN_MOTION_DDOT":"0.0000000000000","REV_AT_EPOCH":"9144","PERIOD":"95.592","APOAPSIS":"548.389","DECAY_DATE":null,"CENTER_NAME":"EARTH","NORAD_CAT_ID":"46372","OBJECT_NAME":"STARLINK-1689"},{"PERIOD":"95.592","APOAPSIS":"548.230","CENTER_NAME":"EARTH","DECAY_DATE":null,"SITE":"AFETR","REV_AT_EPOCH":"9244","MEAN_MOTION_DDOT":"0.0000000000000","OBJECT_NAME":"STARLINK-1711","NORAD_CAT_ID":"46374","MEAN_MOTION":"15.06397950","CLASSIFICATION_TYPE":"U","ARG_OF_PERICENTER":"76.0828","OBJECT_TYPE":"PAYLOAD","REF_FRAME":"TEME","ELEMENT_SET_NO":"999","LAUNCH_DATE":"2020-09-03","MEAN_ANOMALY":"284.0323","MEAN_ELEMENT_THEORY":"SGP4","EPOCH":"2022-04-27T12:31:48.188064","OBJECT_ID":"2020-062BB","TIME_SYSTEM":"UTC","EPHEMERIS_TYPE":"0","TLE_LINE1":"1 46374U 20062BB  22117.52208551  .00001520  00000-0  12093-3 0  9991","GP_ID":"202155643","ECCENTRICITY":"0.00014590","RCS_SIZE":"LARGE","BSTAR":"0.00012093000000","FILE":"3418497","MEAN_MOTION_DOT":"0.00001520","PERIAPSIS":"546.209","SEMIMAJOR_AXIS":"6925.355","TLE_LINE2":"2 46374  53.0541 166.0963 0001459  76.0828 284.0323 15.06397950 92441","INCLINATION":"53.0541","COUNTRY_CODE":"US","RA_OF_ASC_NODE":"166.0963"},{"OBJECT_NAME":"STARLINK-1724","NORAD_CAT_ID":"46375","PERIOD":"95.592","APOAPSIS":"548.567","CENTER_NAME":"EARTH","DECAY_DATE":null,"SITE":"AFETR","MEAN_MOTION_DDOT":"0.0000000000000","REV_AT_EPOCH":"9208","EPOCH":"2022-04-27T11:16:49.781568","OBJECT_ID":"2020-062BC","TIME_SYSTEM":"UTC","CLASSIFICATION_TYPE":"U","MEAN_MOTION":"15.06396024","ARG_OF_PERICENTER":"48.0850","REF_FRAME":"TEME","OBJECT_TYPE":"PAYLOAD","ELEMENT_SET_NO":"999","LAUNCH_DATE":"2020-09-03","MEAN_ANOMALY":"312.0304","MEAN_ELEMENT_THEORY":"SGP4","FILE":"3418497","MEAN_MOTION_DOT":"0.00001875","PERIAPSIS":"545.884","SEMIMAJOR_AXIS":"6925.361","EPHEMERIS_TYPE":"0","TLE_LINE1":"1 46375U 20062BC  22117.47002062  .00001875  00000-0  14473-3 0  9992","GP_ID":"202155893","ECCENTRICITY":"0.00019370","RCS_SIZE":"LARGE","BSTAR":"0.00014473000000","INCLINATION":"53.0546","COUNTRY_CODE":"US","RA_OF_ASC_NODE":"191.3083","TLE_LINE2":"2 46375  53.0546 191.3083 0001937  48.0850 312.0304 15.06396024 92088"},{"ECCENTRICITY":"0.00016880","RCS_SIZE":"LARGE","BSTAR":"0.00000263460000","GP_ID":"202156644","EPHEMERIS_TYPE":"0","TLE_LINE1":"1 46376U 20062BD  22117.48477386 -.00000242  00000-0  26346-5 0  9991","SEMIMAJOR_AXIS":"6925.394","PERIAPSIS":"546.090","FILE":"3418497","MEAN_MOTION_DOT":"-0.00000242","TLE_LINE2":"2 46376  53.0549 191.2569 0001688  51.4867 308.6273 15.06385208 92087","RA_OF_ASC_NODE":"191.2569","COUNTRY_CODE":"US","INCLINATION":"53.0549","MEAN_MOTION_DDOT":"0.0000000000000","REV_AT_EPOCH":"9208","SITE":"AFETR","APOAPSIS":"548.428","DECAY_DATE":null,"CENTER_NAME":"EARTH","PERIOD":"95.593","NORAD_CAT_ID":"46376","OBJECT_NAME":"STARLINK-1742","ELEMENT_SET_NO":"999","LAUNCH_DATE":"2020-09-03","MEAN_ELEMENT_THEORY":"SGP4","MEAN_ANOMALY":"308.6273","REF_FRAME":"TEME","OBJECT_TYPE":"PAYLOAD","ARG_OF_PERICENTER":"51.4867","MEAN_MOTION":"15.06385208","CLASSIFICATION_TYPE":"U","TIME_SYSTEM":"UTC","OBJECT_ID":"2020-062BD","EPOCH":"2022-04-27T11:38:04.461504"},{"MEAN_MOTION_DOT":"0.00007936","FILE":"3418497","PERIAPSIS":"545.981","SEMIMAJOR_AXIS":"6925.324","EPHEMERIS_TYPE":"0","TLE_LINE1":"1 46380U 20062BH  22117.45113743  .00007936  00000-0  55093-3 0  9992","GP_ID":"202156389","BSTAR":"0.00055093000000","RCS_SIZE":"LARGE","ECCENTRICITY":"0.00017440","INCLINATION":"53.0551","COUNTRY_CODE":"US","RA_OF_ASC_NODE":"216.4062","TLE_LINE2":"2 46380  53.0551 216.4062 0001744  54.4811 305.6340 15.06408168 91732","OBJECT_NAME":"STARLINK-1758","NORAD_CAT_ID":"46380","PERIOD":"95.592","CENTER_NAME":"EARTH","DECAY_DATE":null,"APOAPSIS":"548.396","SITE":"AFETR","MEAN_MOTION_DDOT":"0.0000000000000","REV_AT_EPOCH":"9173","EPOCH":"2022-04-27T10:49:38.273952","OBJECT_ID":"2020-062BH","TIME_SYSTEM":"UTC","MEAN_MOTION":"15.06408168","CLASSIFICATION_TYPE":"U","ARG_OF_PERICENTER":"54.4811","REF_FRAME":"TEME","OBJECT_TYPE":"PAYLOAD","LAUNCH_DATE":"2020-09-03","MEAN_ANOMALY":"305.6340","ELEMENT_SET_NO":"999","MEAN_ELEMENT_THEORY":"SGP4"},{"SITE":"AFETR","MEAN_MOTION_DDOT":"0.0000000000000","REV_AT_EPOCH":"9209","PERIOD":"95.593","APOAPSIS":"548.534","CENTER_NAME":"EARTH","DECAY_DATE":null,"NORAD_CAT_ID":"46382","OBJECT_NAME":"STARLINK-1769","REF_FRAME":"TEME","OBJECT_TYPE":"PAYLOAD","MEAN_ELEMENT_THEORY":"SGP4","LAUNCH_DATE":"2020-09-03","ELEMENT_SET_NO":"999","MEAN_ANOMALY":"314.6401","CLASSIFICATION_TYPE":"U","MEAN_MOTION":"15.06383988","ARG_OF_PERICENTER":"45.4738","OBJECT_ID":"2020-062BK","TIME_SYSTEM":"UTC","EPOCH":"2022-04-27T11:59:18.867552","GP_ID":"202155143","ECCENTRICITY":"0.00018360","RCS_SIZE":"LARGE","BSTAR":"0.00001296800000","EPHEMERIS_TYPE":"0","TLE_LINE1":"1 46382U 20062BK  22117.49952393 -.00000089  00000-0  12968-4 0  9998","SEMIMAJOR_AXIS":"6925.398","FILE":"3418497","MEAN_MOTION_DOT":"-0.00000089","PERIAPSIS":"545.991","TLE_LINE2":"2 46382  53.0540 191.1995 0001836  45.4738 314.6401 15.06383988 92096","COUNTRY_CODE":"US","RA_OF_ASC_NODE":"191.1995","INCLINATION":"53.0540"},{"SITE":"AFETR","MEAN_MOTION_DDOT":"0.0000000000000","REV_AT_EPOCH":"9168","PERIOD":"95.593","CENTER_NAME":"EARTH","DECAY_DATE":null,"APOAPSIS":"548.305","NORAD_CAT_ID":"46383","OBJECT_NAME":"STARLINK-1770","OBJECT_TYPE":"PAYLOAD","REF_FRAME":"TEME","MEAN_ANOMALY":"300.7201","LAUNCH_DATE":"2020-09-03","ELEMENT_SET_NO":"999","MEAN_ELEMENT_THEORY":"SGP4","MEAN_MOTION":"15.06393155","CLASSIFICATION_TYPE":"U","ARG_OF_PERICENTER":"59.3941","OBJECT_ID":"2020-062BL","TIME_SYSTEM":"UTC","EPOCH":"2022-04-27T19:37:45.196608","GP_ID":"202164033","BSTAR":"0.00005373900000","ECCENTRICITY":"0.00015450","RCS_SIZE":"LARGE","EPHEMERIS_TYPE":"0","TLE_LINE1":"1 46383U 20062BL  22117.81788422  .00000519  00000-0  53739-4 0  9993","SEMIMAJOR_AXIS":"6925.370","MEAN_MOTION_DOT":"0.00000519","FILE":"3418619","PERIAPSIS":"546.165","TLE_LINE2":"2 46383  53.0552 234.7643 0001545  59.3941 300.7201 15.06393155 91686","COUNTRY_CODE":"US","RA_OF_ASC_NODE":"234.7643","INCLINATION":"53.0552"},{"SEMIMAJOR_AXIS":"6925.405","PERIAPSIS":"546.278","FILE":"3418497","MEAN_MOTION_DOT":"0.00000385","ECCENTRICITY":"0.00014330","RCS_SIZE":"LARGE","BSTAR":"0.00004473600000","GP_ID":"202156144","EPHEMERIS_TYPE":"0","TLE_LINE1":"1 46384U 20062BM  22117.48984299  .00000385  00000-0  44736-4 0  9995","RA_OF_ASC_NODE":"236.2365","COUNTRY_CODE":"US","INCLINATION":"53.0564","TLE_LINE2":"2 46384  53.0564 236.2365 0001433  69.6902 290.4241 15.06381578 91455","NORAD_CAT_ID":"46384","OBJECT_NAME":"STARLINK-1771","MEAN_MOTION_DDOT":"0.0000000000000","REV_AT_EPOCH":"9145","SITE":"AFETR","APOAPSIS":"548.262","DECAY_DATE":null,"CENTER_NAME":"EARTH","PERIOD":"95.593","TIME_SYSTEM":"UTC","OBJECT_ID":"2020-062BM","EPOCH":"2022-04-27T11:45:22.434336","ELEMENT_SET_NO":"999","LAUNCH_DATE":"2020-09-03","MEAN_ELEMENT_THEORY":"SGP4","MEAN_ANOMALY":"290.4241","OBJECT_TYPE":"PAYLOAD","REF_FRAME":"TEME","ARG_OF_PERICENTER":"69.6902","MEAN_MOTION":"15.06381578","CLASSIFICATION_TYPE":"U"},{"LAUNCH_DATE":"2020-10-06","ELEMENT_SET_NO":"999","MEAN_ELEMENT_THEORY":"SGP4","MEAN_ANOMALY":"279.2902","REF_FRAME":"TEME","OBJECT_TYPE":"PAYLOAD","ARG_OF_PERICENTER":"80.8254","CLASSIFICATION_TYPE":"U","MEAN_MOTION":"15.06394874","TIME_SYSTEM":"UTC","OBJECT_ID":"2020-070A","EPOCH":"2022-04-27T11:45:21.624768","REV_AT_EPOCH":"8665","MEAN_MOTION_DDOT":"0.0000000000000","SITE":"AFETR","DECAY_DATE":null,"CENTER_NAME":"EARTH","APOAPSIS":"548.252","PERIOD":"95.592","NORAD_CAT_ID":"46532","OBJECT_NAME":"STARLINK-1644","TLE_LINE2":"2 46532  53.0557  36.2254 0001477  80.8254 279.2902 15.06394874 86658","RA_OF_ASC_NODE":"36.2254","COUNTRY_CODE":"US","INCLINATION":"53.0557","BSTAR":"0.00005339000000","ECCENTRICITY":"0.00014770","RCS_SIZE":"LARGE","GP_ID":"202158657","TLE_LINE1":"1 46532U 20070A   22117.48983362  .00000514  00000-0  53390-4 0  9999","EPHEMERIS_TYPE":"0","SEMIMAJOR_AXIS":"6925.364","PERIAPSIS":"546.206","MEAN_MOTION_DOT":"0.00000514","FILE":"3418497"}];
